IRIDIUM 166             
1 43570U 18061B   25144.19600243  .00000030  00000+0  34840-5 0  9992
2 43570  86.4005 219.2510 0002605  92.5237 267.6257 14.34217663357642
IRIDIUM 158             
1 43571U 18061C   25143.74567777 -.00000045  00000+0 -23114-4 0  9996
2 43571  86.4007 219.4487 0002313 100.5899 259.5557 14.34217210357540
IRIDIUM 165             
1 43572U 18061D   25144.18965989 -.00000125  00000+0 -51545-4 0  9991
2 43572  86.4008 219.3021 0002301  89.9265 270.2195 14.34217318357636
IRIDIUM 155             
1 43573U 18061E   25143.73299231  .00000174  00000+0  55056-4 0  9995
2 43573  86.4002 219.3813 0002536 100.3020 259.8462 14.34217860357538
IRIDIUM 154             
1 43574U 18061F   25143.92327022  .00000053  00000+0  11795-4 0  9995
2 43574  86.4006 219.4161 0002330  95.3635 264.7826 14.34217742357614
IRIDIUM 163             
1 43575U 18061G   25143.90424174  .00000041  00000+0  75272-5 0  9998
2 43575  86.4002 219.3516 0002218  98.9867 261.1580 14.34217880357582
IRIDIUM 156             
1 43576U 18061H   25143.94864151  .00000017  00000+0 -11679-5 0  9991
2 43576  86.4002 219.3401 0002679  97.7753 262.3747 14.34217586357589
IRIDIUM 164             
1 43577U 18061J   25143.72030762  .00000002  00000+0 -65020-5 0  9994
2 43577  86.4008 219.4694 0002344  88.5609 271.5855 14.34217456357597
